[{"OBJECT_NAME":"HAWK-2C","OBJECT_ID":"2021-006CT","EPOCH":"2026-03-09T16:13:22.454976","MEAN_MOTION":15.33286436,"ECCENTRICITY":0.0006943,"INCLINATION":97.2417,"RA_OF_ASC_NODE":114.9961,"ARG_OF_PERICENTER":184.0877,"MEAN_ANOMALY":176.031,"EPHEMERIS_TYPE":0,"CLASSIFICATION_TYPE":"U","NORAD_CAT_ID":47502,"ELEMENT_SET_NO":999,"REV_AT_EPOCH":28424,"BSTAR":0.00025492914,"MEAN_MOTION_DOT":8.129e-5,"MEAN_MOTION_DDOT":0},{"OBJECT_NAME":"STARLINK-34217","OBJECT_ID":"2025-133S","EPOCH":"2026-03-09T12:59:31.544448","MEAN_MOTION":15.3020563,"ECCENTRICITY":0.0001086,"INCLINATION":53.1585,"RA_OF_ASC_NODE":117.63,"ARG_OF_PERICENTER":81.4506,"MEAN_ANOMALY":278.6618,"EPHEMERIS_TYPE":0,"CLASSIFICATION_TYPE":"U","NORAD_CAT_ID":64488,"ELEMENT_SET_NO":999,"REV_AT_EPOCH":4105,"BSTAR":0.00097324,"MEAN_MOTION_DOT":0.00028581,"MEAN_MOTION_DDOT":0}]
